API VERSION: 1.2
API SOURCE: NASA/JPL Horizons API



*******************************************************************************
Ephemeris / API_USER Sat Jul 11 19:36:40 2026 Pasadena, USA      / Horizons    
*******************************************************************************
Target body name: 2060 Chiron (1977 UB)           {source: JPL#171}
Center body name: Earth (399)                     {source: DE441}
Center-site name: GEOCENTRIC
*******************************************************************************
Start time      : A.D. 1940-Jan-01 00:00:00.0000 UT      
Stop  time      : A.D. 1945-Jan-01 00:00:00.0000 UT      
Step-size       : 2880 minutes
*******************************************************************************
Target pole/equ : undefined
Target radii    : 83. km                                                       
Center geodetic : 0.0, 0.0, -6378.137             {E-lon(deg),Lat(deg),Alt(km)}
Center cylindric: 0.0, 0.0, 0.0                   {E-lon(deg),Dxy(km),Dz(km)}
Center pole/equ : ITRF93                          {East-longitude positive}
Center radii    : 6378.137, 6378.137, 6356.752 km {Equator_a, b, pole_c}       
Target primary  : Sun
Vis. interferer : MOON (R_eq= 1737.400) km        {source: DE441}
Rel. light bend : Sun                             {source: DE441}
Rel. lght bnd GM: 1.3271E+11 km^3/s^2                                          
Small-body perts: Yes                             {source: SB441-N16}
Atmos refraction: NO (AIRLESS)
RA format       : DEG
Time format     : CAL 
Calendar mode   : Mixed Julian/Gregorian
EOP file        : eop.260710.p261006                                           
EOP coverage    : DATA-BASED 1962-JAN-20 TO 2026-JUL-10. PREDICTS-> 2026-OCT-05
Units conversion: 1 au= 149597870.700 km, c= 299792.458 km/s, 1 day= 86400.0 s 
Table cut-offs 1: Elevation (-90.0deg=NO ),Airmass (>38.000=NO), Daylight (NO )
Table cut-offs 2: Solar elongation (  0.0,180.0=NO ),Local Hour Angle( 0.0=NO )
Table cut-offs 3: RA/DEC angular rate (     0.0=NO )                           
*******************************************************************************
Initial IAU76/J2000 heliocentric ecliptic osculating elements (au, days, deg.):
  EPOCH=  2457916.5 ! 2017-Jun-12.00 (TDB)         Residual RMS= .19933        
   EC= .3824171374703196   QR= 8.427522999110739   TP= 2450143.7110841358      
   OM= 209.2011323125998   W=  339.6529896907077   IN= 6.94959060447848        
  Equivalent ICRF heliocentric cartesian coordinates (au, au/d):
   X= 1.843374627977423E+01  Y=-1.877818593473934E+00  Z= 5.548833989583914E-01
  VX= 7.316266023833624E-04 VY= 2.960187278972600E-03 VZ= 9.710586201315230E-04
Asteroid physical parameters (km, seconds, rotational period in hours):        
   GM= n.a.                RAD= 83.                ROTPER= 5.918               
   H= 5.54                 G= .150                 B-V= .704                   
                           ALBEDO= .150            STYP= Cb                    
*******************************************************************************
 Date__(UT)__HR:MN        ObsEcLon    ObsEcLat
**********************************************
$$SOE
 1941-Jul-30 00:00     124.9759770  -6.2393888
 1941-Aug-01 00:00     125.2169497  -6.2392527
 1941-Aug-03 00:00     125.4578503  -6.2396616
 1941-Aug-05 00:00     125.6985261  -6.2406154
 1941-Aug-07 00:00     125.9388080  -6.2421131
 1941-Aug-09 00:00     126.1785543  -6.2441535
 1941-Aug-11 00:00     126.4176610  -6.2467357
 1941-Aug-13 00:00     126.6560340  -6.2498591
 1941-Aug-15 00:00     126.8935647  -6.2535234
 1941-Aug-17 00:00     127.1301222  -6.2577284
 1941-Aug-19 00:00     127.3655528  -6.2624742
 1941-Aug-21 00:00     127.5996828  -6.2677610
 1941-Aug-23 00:00     127.8323323  -6.2735886
 1941-Aug-25 00:00     128.0633435  -6.2799570
 1941-Aug-27 00:00     128.2925990  -6.2868651
 1941-Aug-29 00:00     128.5199929  -6.2943113
 1941-Aug-31 00:00     128.7453882  -6.3022926
 1941-Sep-02 00:00     128.9686152  -6.3108059
 1941-Sep-04 00:00     129.1895070  -6.3198472
 1941-Sep-06 00:00     129.4079299  -6.3294130
 1941-Sep-08 00:00     129.6237783  -6.3394996
 1941-Sep-10 00:00     129.8369490  -6.3501038
 1941-Sep-12 00:00     130.0473200  -6.3612223
 1941-Sep-14 00:00     130.2547459  -6.3728519
 1941-Sep-16 00:00     130.4590604  -6.3849893
 1941-Sep-18 00:00     130.6600816  -6.3976311
 1941-Sep-20 00:00     130.8576278  -6.4107734
 1941-Sep-22 00:00     131.0515456  -6.4244119
 1941-Sep-24 00:00     131.2417218  -6.4385410
 1941-Sep-26 00:00     131.4280407  -6.4531539
 1941-Sep-28 00:00     131.6103437  -6.4682423
 1941-Sep-30 00:00     131.7884533  -6.4837973
 1941-Oct-02 00:00     131.9622149  -6.4998092
 1941-Oct-04 00:00     132.1315085  -6.5162684
 1941-Oct-06 00:00     132.2962335  -6.5331650
 1941-Oct-08 00:00     132.4562849  -6.5504892
 1941-Oct-10 00:00     132.6115377  -6.5682308
 1941-Oct-12 00:00     132.7618448  -6.5863793
 1941-Oct-14 00:00     132.9070425  -6.6049238
 1941-Oct-16 00:00     133.0469591  -6.6238527
 1941-Oct-18 00:00     133.1814325  -6.6431536
 1941-Oct-20 00:00     133.3103343  -6.6628130
 1941-Oct-22 00:00     133.4335744  -6.6828157
 1941-Oct-24 00:00     133.5510485  -6.7031444
 1941-Oct-26 00:00     133.6626054  -6.7237802
 1941-Oct-28 00:00     133.7680950  -6.7447029
 1941-Oct-30 00:00     133.8674094  -6.7658918
 1941-Nov-01 00:00     133.9604753  -6.7873258
 1941-Nov-03 00:00     134.0472316  -6.8089833
 1941-Nov-05 00:00     134.1276096  -6.8308423
 1941-Nov-07 00:00     134.2015230  -6.8528805
 1941-Nov-09 00:00     134.2688682  -6.8750744
 1941-Nov-11 00:00     134.3295326  -6.8974000
 1941-Nov-13 00:00     134.3834077  -6.9198323
 1941-Nov-15 00:00     134.4304069  -6.9423450
 1941-Nov-17 00:00     134.4704834  -6.9649103
 1941-Nov-19 00:00     134.5036247  -6.9874983
 1941-Nov-21 00:00     134.5297987  -7.0100767
 1941-Nov-23 00:00     134.5489330  -7.0326116
 1941-Nov-25 00:00     134.5609774  -7.0550679
 1941-Nov-27 00:00     134.5659411  -7.0774104
 1941-Nov-29 00:00     134.5638678  -7.0996037
 1941-Dec-01 00:00     134.5548088  -7.1216125
 1941-Dec-03 00:00     134.5388076  -7.1434010
 1941-Dec-05 00:00     134.5158954  -7.1649336
 1941-Dec-07 00:00     134.4860933  -7.1861739
 1941-Dec-09 00:00     134.4494231  -7.2070855
 1941-Dec-11 00:00     134.4059245  -7.2276313
 1941-Dec-13 00:00     134.3556718  -7.2477734
 1941-Dec-15 00:00     134.2987831  -7.2674731
 1941-Dec-17 00:00     134.2354032  -7.2866902
 1941-Dec-19 00:00     134.1656559  -7.3053833
 1941-Dec-21 00:00     134.0896373  -7.3235105
 1941-Dec-23 00:00     134.0074827  -7.3410303
 1941-Dec-25 00:00     133.9193947  -7.3579026
 1941-Dec-27 00:00     133.8256063  -7.3740889
 1941-Dec-29 00:00     133.7263508  -7.3895523
 1941-Dec-31 00:00     133.6218515  -7.4042573
 1942-Jan-02 00:00     133.5123208  -7.4181698
 1942-Jan-04 00:00     133.3979638  -7.4312571
 1942-Jan-06 00:00     133.2789910  -7.4434879
 1942-Jan-08 00:00     133.1556377  -7.4548322
 1942-Jan-10 00:00     133.0281786  -7.4652608
 1942-Jan-12 00:00     132.8969251  -7.4747455
 1942-Jan-14 00:00     132.7621973  -7.4832589
 1942-Jan-16 00:00     132.6242876  -7.4907742
 1942-Jan-18 00:00     132.4834711  -7.4972667
 1942-Jan-20 00:00     132.3400648  -7.5027144
 1942-Jan-22 00:00     132.1944422  -7.5070989
 1942-Jan-24 00:00     132.0469915  -7.5104056
 1942-Jan-26 00:00     131.8980845  -7.5126230
 1942-Jan-28 00:00     131.7480707  -7.5137429
 1942-Jan-30 00:00     131.5972803  -7.5137602
 1942-Feb-01 00:00     131.4460283  -7.5126726
 1942-Feb-03 00:00     131.2946285  -7.5104804
 1942-Feb-05 00:00     131.1434146  -7.5071864
 1942-Feb-07 00:00     130.9927521  -7.5027951
 1942-Feb-09 00:00     130.8430207  -7.4973126
 1942-Feb-11 00:00     130.6945799  -7.4907468
 1942-Feb-13 00:00     130.5477505  -7.4831074
 1942-Feb-15 00:00     130.4028411  -7.4744064
 1942-Feb-17 00:00     130.2601923  -7.4646595
 1942-Feb-19 00:00     130.1201767  -7.4538854
 1942-Feb-21 00:00     129.9831591  -7.4421064
 1942-Feb-23 00:00     129.8494683  -7.4293477
 1942-Feb-25 00:00     129.7193962  -7.4156367
 1942-Feb-27 00:00     129.5932049  -7.4010031
 1942-Mar-01 00:00     129.4711329  -7.3854782
 1942-Mar-03 00:00     129.3534100  -7.3690947
 1942-Mar-05 00:00     129.2402807  -7.3518863
 1942-Mar-07 00:00     129.1320115  -7.3338869
 1942-Mar-09 00:00     129.0288602  -7.3151305
 1942-Mar-11 00:00     128.9310404  -7.2956509
 1942-Mar-13 00:00     128.8387262  -7.2754826
 1942-Mar-15 00:00     128.7520911  -7.2546611
 1942-Mar-17 00:00     128.6713341  -7.2332231
 1942-Mar-19 00:00     128.5966660  -7.2112068
 1942-Mar-21 00:00     128.5282755  -7.1886512
 1942-Mar-23 00:00     128.4663088  -7.1655965
 1942-Mar-25 00:00     128.4108719  -7.1420826
 1942-Mar-27 00:00     128.3620420  -7.1181497
 1942-Mar-29 00:00     128.3198763  -7.0938375
 1942-Mar-31 00:00     128.2844281  -7.0691851
 1942-Apr-02 00:00     128.2557687  -7.0442308
 1942-Apr-04 00:00     128.2339897  -7.0190110
 1942-Apr-06 00:00     128.2191605  -6.9935605
 1942-Apr-08 00:00     128.2112967  -6.9679128
 1942-Apr-10 00:00     128.2103911  -6.9421002
 1942-Apr-12 00:00     128.2164557  -6.9161551
 1942-Apr-14 00:00     128.2295288  -6.8901098
 1942-Apr-16 00:00     128.2496497  -6.8639962
 1942-Apr-18 00:00     128.2768321  -6.8378463
 1942-Apr-20 00:00     128.3110518  -6.8116914
 1942-Apr-22 00:00     128.3522525  -6.7855621
 1942-Apr-24 00:00     128.4003576  -6.7594878
 1942-Apr-26 00:00     128.4552829  -6.7334970
 1942-Apr-28 00:00     128.5169517  -6.7076168
 1942-Apr-30 00:00     128.5853123  -6.6818726
 1942-May-02 00:00     128.6603330  -6.6562881
 1942-May-04 00:00     128.7419510  -6.6308846
 1942-May-06 00:00     128.8300509  -6.6056817
 1942-May-08 00:00     128.9245172  -6.5806984
 1942-May-10 00:00     129.0252733  -6.5559533
 1942-May-12 00:00     129.1322678  -6.5314648
